[{"OBJECT_NAME":"STARLINK-35028","OBJECT_ID":"2025-191C","EPOCH":"2026-03-09T14:53:25.895040","MEAN_MOTION":15.05649242,"ECCENTRICITY":0.0002533,"INCLINATION":97.602,"RA_OF_ASC_NODE":301.5308,"ARG_OF_PERICENTER":89.3029,"MEAN_ANOMALY":270.8488,"EPHEMERIS_TYPE":0,"CLASSIFICATION_TYPE":"U","NORAD_CAT_ID":65381,"ELEMENT_SET_NO":999,"REV_AT_EPOCH":3026,"BSTAR":0.0003301,"MEAN_MOTION_DOT":4.705e-5,"MEAN_MOTION_DDOT":0},{"OBJECT_NAME":"CZ-4C DEB","OBJECT_ID":"2010-038C","EPOCH":"2026-03-09T11:39:53.947584","MEAN_MOTION":15.01546644,"ECCENTRICITY":0.00721012,"INCLINATION":97.7316,"RA_OF_ASC_NODE":260.9237,"ARG_OF_PERICENTER":198.3771,"MEAN_ANOMALY":193.4151,"EPHEMERIS_TYPE":0,"CLASSIFICATION_TYPE":"U","NORAD_CAT_ID":37567,"ELEMENT_SET_NO":999,"REV_AT_EPOCH":82756,"BSTAR":0.0017211285,"MEAN_MOTION_DOT":0.00023562,"MEAN_MOTION_DDOT":0}]
